TIANMU-1 21             
1 58662U 23208C   26200.83437741  .00005218  00000+0  15306-3 0  9992
2 58662  97.4531 320.8098 0007156 187.3557 172.7582 15.35602319142579
TIANMU-1 22             
1 58663U 23208D   26200.81161733  .00003937  00000+0  13218-3 0  9992
2 58663  97.4523 317.2009 0003191 198.9326 161.1797 15.31464691142328
TIANMU-1 15             
1 58700U 24004A   26200.86563700  .00002977  00000+0  11535-3 0  9997
2 58700  97.4675  27.0568 0006434 209.4981 150.5895 15.26941677140767
TIANMU-1 16             
1 58701U 24004B   26200.85478694  .00002640  00000+0  10232-3 0  9994
2 58701  97.4624  26.2600 0004730 224.4749 135.6110 15.27044075140767
TIANMU-1 17             
1 58702U 24004C   26200.84027604  .00002729  00000+0  10568-3 0  9995
2 58702  97.4651  26.7424 0004164 229.7455 130.3420 15.27041704140751
TIANMU-1 18             
1 58703U 24004D   26200.81662365  .00002709  00000+0  10521-3 0  9999
2 58703  97.4668  26.9818 0004177 204.8421 155.2618 15.26956220140752
INSAT-3DS               
1 58990U 24033A   26200.85048189 -.00000159  00000+0  00000+0 0  9990
2 58990   0.0783 263.9626 0001249 220.8989 200.9993  1.00270797 47397
METEOR-M2 4             
1 59051U 24039A   26200.89243352 -.00000009  00000+0  15522-4 0  9992
2 59051  98.7029 159.7828 0008239  77.1236 283.0862 14.22432397123917
GOES 19                 
1 60133U 24119A   26200.85114369 -.00000252  00000+0  00000+0 0  9995
2 60133   0.0191 140.8371 0000282  50.0446 337.9637  1.00272657  7297
MTG-S1                  
1 64723U 25143A   26200.83414602 -.00000010  00000+0  00000+0 0  9995
2 64723   0.5818 346.2050 0003270 258.3783 352.9636  1.00274996  3740
METOP-SGA1              
1 65159U 25172A   26195.76442858  .00000019  00000+0  29163-4 0  9994
2 65159  98.6631 254.9090 0007098 333.3306  26.7504 14.19819127 47700
FENGYUN 3H              
1 65815U 25219A   26200.80778767  .00000007  00000+0  23729-4 0  9997
2 65815  98.6770 140.9437 0001049  61.7386 298.3897 14.19925188 42018
