OBJECT_NAME,OBJECT_ID,EPOCH,MEAN_MOTION,ECCENTRICITY,INCLINATION,RA_OF_ASC_NODE,ARG_OF_PERICENTER,MEAN_ANOMALY,EPHEMERIS_TYPE,CLASSIFICATION_TYPE,NORAD_CAT_ID,ELEMENT_SET_NO,REV_AT_EPOCH,BSTAR,MEAN_MOTION_DOT,MEAN_MOTION_DDOT
TIANMU-1 21,2023-208C,2026-07-19T20:01:30.208224,15.35602319,.0007156,97.4531,320.8098,187.3557,172.7582,0,U,58662,999,14257,.15306E-3,.5218E-4,0
TIANMU-1 22,2023-208D,2026-07-19T19:28:43.737312,15.31464691,.0003191,97.4523,317.2009,198.9326,161.1797,0,U,58663,999,14232,.13218E-3,.3937E-4,0
TIANMU-1 15,2024-004A,2026-07-19T20:46:31.036800,15.26941677,.0006434,97.4675,27.0568,209.4981,150.5895,0,U,58700,999,14076,.11535E-3,.2977E-4,0
TIANMU-1 16,2024-004B,2026-07-19T20:30:53.591616,15.27044075,.000473,97.4624,26.2600,224.4749,135.6110,0,U,58701,999,14076,.10232E-3,.264E-4,0
TIANMU-1 17,2024-004C,2026-07-19T20:09:59.849856,15.27041704,.0004164,97.4651,26.7424,229.7455,130.3420,0,U,58702,999,14075,.10568E-3,.2729E-4,0
TIANMU-1 18,2024-004D,2026-07-19T19:35:56.283360,15.26956220,.0004177,97.4668,26.9818,204.8421,155.2618,0,U,58703,999,14075,.10521E-3,.2709E-4,0
INSAT-3DS,2024-033A,2026-07-19T20:24:41.635296,1.00270797,.0001249,0.0783,263.9626,220.8989,200.9993,0,U,58990,999,4739,0,-.159E-5,0
METEOR-M2 4,2024-039A,2026-07-19T21:25:06.256128,14.22432397,.0008239,98.7029,159.7828,77.1236,283.0862,0,U,59051,999,12391,.15522E-4,-.9E-7,0
GOES 19,2024-119A,2026-07-19T20:25:38.814816,1.00272657,.0000282,0.0191,140.8371,50.0446,337.9637,0,U,60133,999,729,0,-.252E-5,0
MTG-S1,2025-143A,2026-07-19T20:01:10.216128,1.00274996,.000327,0.5818,346.2050,258.3783,352.9636,0,U,64723,999,374,0,-.1E-6,0
METOP-SGA1,2025-172A,2026-07-14T18:20:46.629312,14.19819127,.00070989,98.6631,254.9090,333.3306,26.7504,0,U,65159,999,4770,.2916334E-4,.19E-6,0
FENGYUN 3H,2025-219A,2026-07-19T19:23:12.854688,14.19925188,.0001049,98.6770,140.9437,61.7386,298.3897,0,U,65815,999,4201,.23729E-4,.7E-7,0
